{"type": "FeatureCollection", "features": [ {"type": "Feature", "properties": {"norad_id": 61182, "name": "GSAT0232 (GALILEO 32)", "group": "gnss", "lat": 54.21231973989114, "lon": -28.15736066009652, "alt_km": 23217.54450854839, "timestamp": "2025-12-21T16:47:54.982131+00:00", "meta": {"OBJECT_NAME": "GSAT0232 (GALILEO 32)", "OBJECT_ID": "2024-167A", "EPOCH": "2025-12-21T05:44:27.225600", "MEAN_MOTION": 1.70473624, "ECCENTRICITY": 0.0001881, "INCLINATION": 55.2384, "RA_OF_ASC_NODE": 226.1977, "ARG_OF_PERICENTER": 205.7333, "MEAN_ANOMALY": 330.6739, "EPHEMERIS_TYPE": 0, "CLASSIFICATION_TYPE": "U", "NORAD_CAT_ID": 61182, "ELEMENT_SET_NO": 999, "REV_AT_EPOCH": 784, "BSTAR": 0, "MEAN_MOTION_DOT": 7.3e-07, "MEAN_MOTION_DDOT": 0}, "tle": {"line1": "1 61182U 24167A   25355.23920400  .00000073  00000+0  00000+0 0  9996", "line2": "2 61182  55.2384 226.1977 0001881 205.7333 330.6739  1.70473624  7846"}}, "geometry": {"type": "Point", "coordinates": [-28.15736066009652, 54.21231973989114]}}, {"type": "Feature", "properties": {"norad_id": 61183, "name": "GSAT0226 (GALILEO 31)", "group": "gnss", "lat": -25.63594959543108, "lon": 65.66698607161821, "alt_km": 23226.415807340436, "timestamp": "2025-12-21T16:47:54.982142+00:00", "meta": {"OBJECT_NAME": "GSAT0226 (GALILEO 31)", "OBJECT_ID": "2024-167B", "EPOCH": "2025-12-21T00:56:32.993664", "MEAN_MOTION": 1.70473742, "ECCENTRICITY": 0.00011348, "INCLINATION": 55.237, "RA_OF_ASC_NODE": 226.2086, "ARG_OF_PERICENTER": 107.254, "MEAN_ANOMALY": 59.1101, "EPHEMERIS_TYPE": 0, "CLASSIFICATION_TYPE": "U", "NORAD_CAT_ID": 61183, "ELEMENT_SET_NO": 999, "REV_AT_EPOCH": 781, "BSTAR": 0, "MEAN_MOTION_DOT": 7.3e-07, "MEAN_MOTION_DDOT": 0}, "tle": {"line1": "1 61183U 24167B   25355.03927076  .00000073  00000+0  00000+0 0  9991", "line2": "2 61183  55.2370 226.2086 0001134 107.2540  59.1101  1.70473742  7815"}}, "geometry": {"type": "Point", "coordinates": [65.66698607161821, -25.63594959543108]}}, {"type": "Feature", "properties": {"norad_id": 61186, "name": "BEIDOU-3 M25 (C47)", "group": "gnss", "lat": -14.427103131045278, "lon": -62.129299514673534, "alt_km": 21518.96387804062, "timestamp": "2025-12-21T16:47:54.982157+00:00", "meta": {"OBJECT_NAME": "BEIDOU-3 M25 (C47)", "OBJECT_ID": "2024-168B", "EPOCH": "2025-12-21T10:54:12.559392", "MEAN_MOTION": 1.86230226, "ECCENTRICITY": 0.0005453, "INCLINATION": 54.6344, "RA_OF_ASC_NODE": 308.4188, "ARG_OF_PERICENTER": 299.6756, "MEAN_ANOMALY": 237.8086, "EPHEMERIS_TYPE": 0, "CLASSIFICATION_TYPE": "U", "NORAD_CAT_ID": 61186, "ELEMENT_SET_NO": 999, "REV_AT_EPOCH": 847, "BSTAR": 0, "MEAN_MOTION_DOT": -6.3e-07, "MEAN_MOTION_DDOT": 0}, "tle": {"line1": "1 61186U 24168B   25355.45431203 -.00000063  00000+0  00000+0 0  9993", "line2": "2 61186  54.6344 308.4188 0005453 299.6756 237.8086  1.86230226  8476"}}, "geometry": {"type": "Point", "coordinates": [-62.129299514673534, -14.427103131045278]}}, {"type": "Feature", "properties": {"norad_id": 61187, "name": "BEIDOU-3 M27 (C49)", "group": "gnss", "lat": 46.5124485737228, "lon": 79.9446596986212, "alt_km": 21527.732824400424, "timestamp": "2025-12-21T16:47:54.982168+00:00", "meta": {"OBJECT_NAME": "BEIDOU-3 M27 (C49)", "OBJECT_ID": "2024-168C", "EPOCH": "2025-12-21T06:06:47.585952", "MEAN_MOTION": 1.86230383, "ECCENTRICITY": 0.0002534, "INCLINATION": 54.63, "RA_OF_ASC_NODE": 308.4093, "ARG_OF_PERICENTER": 340.0926, "MEAN_ANOMALY": 198.5211, "EPHEMERIS_TYPE": 0, "CLASSIFICATION_TYPE": "U", "NORAD_CAT_ID": 61187, "ELEMENT_SET_NO": 999, "REV_AT_EPOCH": 594, "BSTAR": 0, "MEAN_MOTION_DOT": -6.4e-07, "MEAN_MOTION_DDOT": 0}, "tle": {"line1": "1 61187U 24168C   25355.25471743 -.00000064  00000+0  00000+0 0  9996", "line2": "2 61187  54.6300 308.4093 0002534 340.0926 198.5211  1.86230383  5947"}}, "geometry": {"type": "Point", "coordinates": [79.9446596986212, 46.5124485737228]}}, {"type": "Feature", "properties": {"norad_id": 62339, "name": "GPS BIII-7  (PRN 01)", "group": "gnss", "lat": -50.40081745427874, "lon": -140.49359886806124, "alt_km": 20190.402669827487, "timestamp": "2025-12-21T16:47:54.982182+00:00", "meta": {"OBJECT_NAME": "GPS BIII-7  (PRN 01)", "OBJECT_ID": "2024-242A", "EPOCH": "2025-12-18T08:46:28.895808", "MEAN_MOTION": 2.00568182, "ECCENTRICITY": 0.0012509, "INCLINATION": 54.922, "RA_OF_ASC_NODE": 341.5124, "ARG_OF_PERICENTER": 345.6877, "MEAN_ANOMALY": 17.1618, "EPHEMERIS_TYPE": 0, "CLASSIFICATION_TYPE": "U", "NORAD_CAT_ID": 62339, "ELEMENT_SET_NO": 999, "REV_AT_EPOCH": 763, "BSTAR": 0, "MEAN_MOTION_DOT": -8.5e-07, "MEAN_MOTION_DDOT": 0}, "tle": {"line1": "1 62339U 24242A   25352.36561222 -.00000085  00000+0  00000+0 0  9993", "line2": "2 62339  54.9220 341.5124 0012509 345.6877  17.1618  2.00568182  7636"}}, "geometry": {"type": "Point", "coordinates": [-140.49359886806124, -50.40081745427874]}}, {"type": "Feature", "properties": {"norad_id": 62850, "name": "NVS-02 (IRNSS-1K)", "group": "gnss", "lat": -20.941277312164743, "lon": -128.8734161161337, "alt_km": 13725.365841039227, "timestamp": "2025-12-21T16:47:54.982194+00:00", "meta": {"OBJECT_NAME": "NVS-02 (IRNSS-1K)", "OBJECT_ID": "2025-020A", "EPOCH": "2025-12-21T06:41:43.124640", "MEAN_MOTION": 2.17600556, "ECCENTRICITY": 0.7347343, "INCLINATION": 20.9628, "RA_OF_ASC_NODE": 324.5689, "ARG_OF_PERICENTER": 31.7684, "MEAN_ANOMALY": 356.5401, "EPHEMERIS_TYPE": 0, "CLASSIFICATION_TYPE": "U", "NORAD_CAT_ID": 62850, "ELEMENT_SET_NO": 999, "REV_AT_EPOCH": 710, "BSTAR": 0.00014712, "MEAN_MOTION_DOT": 8.4e-07, "MEAN_MOTION_DDOT": 0}, "tle": {"line1": "1 62850U 25020A   25355.27897135  .00000084  00000+0  14712-3 0  9991", "line2": "2 62850  20.9628 324.5689 7347343  31.7684 356.5401  2.17600556  7101"}}, "geometry": {"type": "Point", "coordinates": [-128.8734161161337, -20.941277312164743]}}, {"type": "Feature", "properties": {"norad_id": 62876, "name": "QZS-6 (QZSS/PRN 200)", "group": "gnss", "lat": 0.023487674092230505, "lon": 73.03943467180427, "alt_km": 35791.718268867335, "timestamp": "2025-12-21T16:47:54.982206+00:00", "meta": {"OBJECT_NAME": "QZS-6 (QZSS/PRN 200)", "OBJECT_ID": "2025-023A", "EPOCH": "2025-12-21T02:25:38.762976", "MEAN_MOTION": 1.0027218, "ECCENTRICITY": 0.00014989, "INCLINATION": 0.0505, "RA_OF_ASC_NODE": 69.8348, "ARG_OF_PERICENTER": 209.4241, "MEAN_ANOMALY": 297.6225, "EPHEMERIS_TYPE": 0, "CLASSIFICATION_TYPE": "U", "NORAD_CAT_ID": 62876, "ELEMENT_SET_NO": 999, "REV_AT_EPOCH": 317, "BSTAR": 0, "MEAN_MOTION_DOT": -2.11e-06, "MEAN_MOTION_DDOT": 0}, "tle": {"line1": "1 62876U 25023A   25355.10114309 -.00000211  00000+0  00000+0 0  9993", "line2": "2 62876   0.0505  69.8348 0001498 209.4241 297.6225  1.00272180  3178"}}, "geometry": {"type": "Point", "coordinates": [73.03943467180427, 0.023487674092230505]}}, {"type": "Feature", "properties": {"norad_id": 63130, "name": "COSMOS 2584 (704K)", "group": "gnss", "lat": -41.314014156482095, "lon": 54.663451915573646, "alt_km": 19136.336425597106, "timestamp": "2025-12-21T16:47:54.982217+00:00", "meta": {"OBJECT_NAME": "COSMOS 2584 (704K)", "OBJECT_ID": "2025-042A", "EPOCH": "2025-12-21T07:00:00.962784", "MEAN_MOTION": 2.1310308, "ECCENTRICITY": 0.000773, "INCLINATION": 64.9804, "RA_OF_ASC_NODE": 78.8547, "ARG_OF_PERICENTER": 219.1567, "MEAN_ANOMALY": 140.8257, "EPHEMERIS_TYPE": 0, "CLASSIFICATION_TYPE": "U", "NORAD_CAT_ID": 63130, "ELEMENT_SET_NO": 999, "REV_AT_EPOCH": 625, "BSTAR": 0, "MEAN_MOTION_DOT": -1.1e-07, "MEAN_MOTION_DDOT": 0}, "tle": {"line1": "1 63130U 25042A   25355.29167781 -.00000011  00000+0  00000+0 0  9998", "line2": "2 63130  64.9804  78.8547 0007730 219.1567 140.8257  2.13103080  6251"}}, "geometry": {"type": "Point", "coordinates": [54.663451915573646, -41.314014156482095]}}, {"type": "Feature", "properties": {"norad_id": 64202, "name": "GPS BIII-8  (PRN 21)", "group": "gnss", "lat": 53.790216192416835, "lon": 110.55881803803904, "alt_km": 20186.2723203893, "timestamp": "2025-12-21T16:47:54.982228+00:00", "meta": {"OBJECT_NAME": "GPS BIII-8  (PRN 21)", "OBJECT_ID": "2025-116A", "EPOCH": "2025-12-21T05:27:12.746304", "MEAN_MOTION": 2.00557871, "ECCENTRICITY": 0.0005801, "INCLINATION": 55.1115, "RA_OF_ASC_NODE": 38.2986, "ARG_OF_PERICENTER": 309.9231, "MEAN_ANOMALY": 148.3902, "EPHEMERIS_TYPE": 0, "CLASSIFICATION_TYPE": "U", "NORAD_CAT_ID": 64202, "ELEMENT_SET_NO": 999, "REV_AT_EPOCH": 430, "BSTAR": 0, "MEAN_MOTION_DOT": -5.6e-07, "MEAN_MOTION_DDOT": 0}, "tle": {"line1": "1 64202U 25116A   25355.22723086 -.00000056  00000+0  00000+0 0  9999", "line2": "2 64202  55.1115  38.2986 0005801 309.9231 148.3902  2.00557871  4300"}}, "geometry": {"type": "Point", "coordinates": [110.55881803803904, 53.790216192416835]}}, {"type": "Feature", "properties": {"norad_id": 65590, "name": "COSMOS 2596 (708K)", "group": "gnss", "lat": 59.18596657739169, "lon": 13.442308920857501, "alt_km": 19143.92421769982, "timestamp": "2025-12-21T16:47:54.982241+00:00", "meta": {"OBJECT_NAME": "COSMOS 2596 (708K)", "OBJECT_ID": "2025-206B", "EPOCH": "2025-12-21T04:46:20.434368", "MEAN_MOTION": 2.13100447, "ECCENTRICITY": 0.00140799, "INCLINATION": 64.7398, "RA_OF_ASC_NODE": 321.1811, "ARG_OF_PERICENTER": 307.1561, "MEAN_ANOMALY": 100.0087, "EPHEMERIS_TYPE": 0, "CLASSIFICATION_TYPE": "U", "NORAD_CAT_ID": 65590, "ELEMENT_SET_NO": 999, "REV_AT_EPOCH": 212, "BSTAR": 0, "MEAN_MOTION_DOT": -4.9e-07, "MEAN_MOTION_DDOT": 0}, "tle": {"line1": "1 65590U 25206B   25355.19884762 -.00000049  00000+0  00000+0 0  9997", "line2": "2 65590  64.7398 321.1811 0014079 307.1561 100.0087  2.13100447  2128"}}, "geometry": {"type": "Point", "coordinates": [13.442308920857501, 59.18596657739169]}}]}